GONETS-M 21             
1 47228U 20091B   21305.06564693  .00000049  00000-0  28545-3 0  9995
2 47228  82.4933 272.0723 0013393 283.6757  76.2822 12.42883491 41367
GONETS-M 22             
1 47229U 20091C   21305.11797152  .00000041  00000-0  22235-3 0  9992
2 47229  82.4996 272.1498 0020200 261.9996  97.8790 12.42877451 41368
COSMOS 2548             
1 47230U 20091D   21305.20244624  .00000018  00000-0  60027-4 0  9991
2 47230  82.4965 272.0509 0013967 280.6405  79.3101 12.42881689 41373
GAOFEN 14               
1 47231U 20092A   21305.20866912  .00002699  00000-0  10874-3 0  9994
2 47231  97.4094  20.4993 0001279 209.1759 235.4164 15.25710818 50313
GECAM-A                 
1 47234U 20094A   21305.08724237  .00000637  00000-0  49533-4 0  9993
2 47234  28.9970  94.7663 0012776  53.7676 306.4111 14.90809731 48683
GECAM-B                 
1 47235U 20094B   21305.13516490  .00000632  00000-0  48858-4 0  9994
2 47235  28.9960  94.1829 0013130  53.7335 306.4474 14.90894534 48696
STRIX-ALPHA             
1 47253U 20098A   21305.04728962  .00005114  00000-0  22494-3 0  9994
2 47253  97.3410 195.5170 0011748 254.3782 217.9731 15.22251318 48740
ONEWEB-0102             
1 47258U 20100A   21304.79482214 -.00000875  00000-0 -24673-2 0  9992
2 47258  87.8857 326.5700 0002205  95.0989 265.0391 13.12447585 43130
ONEWEB-0109             
1 47259U 20100B   21304.80637965  .00000076  00000-0  17562-3 0  9991
2 47259  87.8918 326.4233 0002038  90.6093 269.5269 13.12446572 42968
ONEWEB-0110             
1 47260U 20100C   21304.82947694 -.00000346  00000-0 -99784-3 0  9996
2 47260  87.8880 326.5008 0002371  92.3011 267.8389 13.12449434 43132
ONEWEB-0111             
1 47261U 20100D   21304.78326814 -.00000381  00000-0 -10937-2 0  9998
2 47261  87.8881 326.5368 0002094  94.2533 265.8835 13.12440956 42969
ONEWEB-0114             
1 47262U 20100E   21304.81561812 -.00000490  00000-0 -13980-2 0  9994
2 47262  87.8921 326.3858 0001936  81.0297 279.1050 13.12447589 42924
ONEWEB-0117             
1 47263U 20100F   21304.80867899  .00000092  00000-0  22125-3 0  9996
2 47263  87.8831 326.4711 0002128  92.0705 268.0667 13.12448207 42934
ONEWEB-0118             
1 47264U 20100G   21304.76248866  .00000161  00000-0  41099-3 0  9997
2 47264  87.8864 326.5198 0001392  67.0016 293.1259 13.12438977 43121
ONEWEB-0119             
1 47265U 20100H   21304.79020049 -.00000772  00000-0 -21803-2 0  9992
2 47265  87.8856 326.5782 0002082  92.1096 268.0271 13.12443461 43103
ONEWEB-0120             
1 47266U 20100J   21304.82026192  .00000513  00000-0  13916-2 0  9999
2 47266  87.8929 326.4987 0002051  86.0819 274.0544 13.12442490 43136
ONEWEB-0121             
1 47267U 20100K   21304.80408691 -.00000011  00000-0 -66846-4 0  9993
2 47267  87.8936 326.5581 0002058  98.6504 261.4858 13.12444982 43049
ONEWEB-0122             
1 47268U 20100L   21304.79714989 -.00000203  00000-0 -59960-3 0  9993
2 47268  87.8846 326.4711 0001966  91.2877 268.8477 13.12447641 42955
ONEWEB-0123             
1 47269U 20100M   21304.79253054 -.00000286  00000-0 -83002-3 0  9990
2 47269  87.8872 326.5475 0001878  89.7487 270.3856 13.12440419 43095
ONEWEB-0124             
1 47270U 20100N   21304.93107704 -.00001503  00000-0 -42151-2 0  9990
2 47270  87.8838 326.4533 0002106 108.6750 251.4607 13.12442751 42995
ONEWEB-0125             
1 47271U 20100P   21304.75789157  .00000832  00000-0  22767-2 0  9992
2 47271  87.8915 326.5680 0001965  81.7365 278.3987 13.12439784 43038
ONEWEB-0126             
1 47272U 20100Q   21304.78213951 -.00000372  00000-0 -10702-2 0  9997
2 47272  87.8872 326.5962 0002137  88.3910 271.7463 13.12441776 43103
ONEWEB-0127             
1 47273U 20100R   21304.82255153  .00000448  00000-0  12098-2 0  9995
2 47273  87.8848 326.4853 0001806  89.3539 270.7796 13.12437442 43131
ONEWEB-0128             
1 47274U 20100S   21304.76713162  .00000515  00000-0  13949-2 0  9999
2 47274  87.8867 326.5098 0002342  99.3104 260.8290 13.12440494 43141
ONEWEB-0129             
1 47275U 20100T   21304.82488769  .00000607  00000-0  16518-2 0  9996
2 47275  87.8881 326.4348 0002716  53.0513 307.0864 13.12440880 43084
ONEWEB-0130             
1 47276U 20100U   21304.77405550 -.00000226  00000-0 -66399-3 0  9990
2 47276  87.8902 326.5251 0002086  97.2032 262.9333 13.12437495 43043
ONEWEB-0131             
1 47277U 20100V   21304.77172366 -.00000175  00000-0 -52147-3 0  9996
2 47277  87.8901 326.4738 0002019 100.0073 260.1283 13.12437451 43086
ONEWEB-0132             
1 47278U 20100W   21304.87798599 -.00000557  00000-0 -15836-2 0  9997
2 47278  87.8866 326.5638 0001996  84.5133 275.6223 13.12444608 42999
