EPOCH,MEAN_MOTION,ECCENTRICITY,INCLINATION,RA_OF_ASC_NODE,ARG_OF_PERICENTER,MEAN_ANOMALY,NORAD_CAT_ID,SEMIMAJOR_AXIS,PERIOD,APOAPSIS,PERIAPSIS,OBJECT_TYPE,RCS_SIZE,COUNTRY_CODE,LAUNCH_DATE
1635726871.0,12.42883491,0.0013393,82.4933,272.0723,283.6757,76.2822,47228,7872.54,115.86,1504.949,1483.862,PAYLOAD,LARGE,CIS,2020.0
1635731392.0,12.42877451,0.00202,82.4996,272.1498,261.9996,97.879,47229,7872.566,115.86,1510.333,1478.528,PAYLOAD,LARGE,CIS,2020.0
1635738691.0,12.42881689,0.0013967,82.4965,272.0509,280.6405,79.3101,47230,7872.548,115.86,1505.409,1483.417,PAYLOAD,MEDIUM,CIS,2020.0
1635739229.0,15.25710818,0.0001279,97.4094,20.4993,209.1759,235.4164,47231,6866.789,94.382,489.532,487.776,PAYLOAD,LARGE,PRC,2020.0
1635728737.0,14.90809731,0.0012776,28.997,94.7663,53.7676,306.4111,47234,6973.546,96.592,604.321,586.502,PAYLOAD,MEDIUM,PRC,2020.0
1635732878.0,14.90894534,0.001313,28.996,94.1829,53.7335,306.4474,47235,6973.282,96.586,604.303,585.991,PAYLOAD,MEDIUM,PRC,2020.0
1635725285.0,15.22251318,0.0011748,97.341,195.517,254.3782,217.9731,47253,6877.189,94.597,507.133,490.974,PAYLOAD,MEDIUM,JPN,2020.0
1635703472.0,13.12447585,0.0002205,87.8857,326.57,95.0989,265.0391,47258,7591.843,109.719,1215.382,1212.034,PAYLOAD,LARGE,UK,2020.0
1635704471.0,13.12446572,0.0002038,87.8918,326.4233,90.6093,269.5269,47259,7591.847,109.719,1215.259,1212.164,PAYLOAD,LARGE,UK,2020.0
1635706466.0,13.12449434,0.0002371,87.888,326.5008,92.3011,267.8389,47260,7591.835,109.719,1215.501,1211.9,PAYLOAD,LARGE,UK,2020.0
1635702474.0,13.12440956,0.0002094,87.8881,326.5368,94.2533,265.8835,47261,7591.868,109.719,1215.323,1212.143,PAYLOAD,LARGE,UK,2020.0
1635705269.0,13.12447589,0.0001936,87.8921,326.3858,81.0297,279.105,47262,7591.843,109.719,1215.177,1212.238,PAYLOAD,LARGE,UK,2020.0
1635704669.0,13.12448207,0.0002128,87.8831,326.4711,92.0705,268.0667,47263,7591.84,109.719,1215.321,1212.09,PAYLOAD,LARGE,UK,2020.0
1635700679.0,13.12438977,0.0001392,87.8864,326.5198,67.0016,293.1259,47264,7591.876,109.719,1214.798,1212.684,PAYLOAD,LARGE,UK,2020.0
1635703073.0,13.12443461,0.0002082,87.8856,326.5782,92.1096,268.0271,47265,7591.859,109.719,1215.304,1212.143,PAYLOAD,LARGE,UK,2020.0
1635705670.0,13.1244249,0.0002051,87.8929,326.4987,86.0819,274.0544,47266,7591.862,109.719,1215.284,1212.17,PAYLOAD,MEDIUM,UK,2020.0
1635704273.0,13.12444982,0.0002058,87.8936,326.5581,98.6504,261.4858,47267,7591.853,109.719,1215.28,1212.155,PAYLOAD,LARGE,UK,2020.0
1635703673.0,13.12447641,0.0001966,87.8846,326.4711,91.2877,268.8477,47268,7591.842,109.719,1215.2,1212.215,PAYLOAD,LARGE,UK,2020.0
1635703274.0,13.12440419,0.0001878,87.8872,326.5475,89.7487,270.3856,47269,7591.87,109.719,1215.161,1212.309,PAYLOAD,LARGE,UK,2020.0
1635715245.0,13.12442751,0.0002106,87.8838,326.4533,108.675,251.4607,47270,7591.861,109.719,1215.325,1212.127,PAYLOAD,LARGE,UK,2020.0
1635700281.0,13.12439784,0.0001965,87.8915,326.568,81.7365,278.3987,47271,7591.873,109.719,1215.229,1212.246,PAYLOAD,LARGE,UK,2020.0
1635702376.0,13.12441776,0.0002137,87.8872,326.5962,88.391,271.7463,47272,7591.865,109.719,1215.352,1212.108,PAYLOAD,LARGE,UK,2020.0
1635705868.0,13.12437442,0.0001806,87.8848,326.4853,89.3539,270.7796,47273,7591.882,109.72,1215.118,1212.376,PAYLOAD,LARGE,UK,2020.0
1635701080.0,13.12440494,0.0002342,87.8867,326.5098,99.3104,260.829,47274,7591.87,109.719,1215.513,1211.957,PAYLOAD,LARGE,UK,2020.0
1635706070.0,13.1244088,0.0002716,87.8881,326.4348,53.0513,307.0864,47275,7591.868,109.719,1215.795,1211.672,PAYLOAD,LARGE,UK,2020.0
1635701678.0,13.12437495,0.0002086,87.8902,326.5251,97.2032,262.9333,47276,7591.882,109.72,1215.33,1212.163,PAYLOAD,LARGE,UK,2020.0
1635701476.0,13.12437451,0.0002019,87.8901,326.4738,100.0073,260.1283,47277,7591.882,109.72,1215.279,1212.214,PAYLOAD,LARGE,UK,2020.0
1635710657.0,13.12444608,0.0001996,87.8866,326.5638,84.5133,275.6223,47278,7591.854,109.719,1215.234,1212.204,PAYLOAD,LARGE,UK,2020.0
